start=new Date('2022-09-20T00:00:00.000Z').valueOf();
sats=[{"TLE_LINE1":"1 53430U 22097AU  22262.91667824 -.00012830  00000-0 -87212-4 0  9992","EPHEMERIS_TYPE":"0","PERIAPSIS":"348.498","GP_ID":"213035930","LAUNCH_DATE":"2022-08-10","CENTER_NAME":"EARTH","EPOCH":"2022-09-19T22:00:00.999936","MEAN_MOTION_DDOT":"0.0000000000000","TLE_LINE2":"2 53430  53.2164  46.5080 0001978  37.9730 347.3776 15.73175776  1305","SEMIMAJOR_AXIS":"6727.964","MEAN_ANOMALY":"347.3776","REF_FRAME":"TEME","SITE":"AFETR","TIME_SYSTEM":"UTC","RA_OF_ASC_NODE":"46.5080","OBJECT_TYPE":"PAYLOAD","ECCENTRICITY":"0.00019780","ARG_OF_PERICENTER":"37.9730","OBJECT_ID":"2022-097AU","MEAN_MOTION_DOT":"-0.00012830","REV_AT_EPOCH":"130","DECAY_DATE":null,"CLASSIFICATION_TYPE":"U","MEAN_ELEMENT_THEORY":"SGP4","MEAN_MOTION":"15.73175776","PERIOD":"91.535","COUNTRY_CODE":"US","BSTAR":"-0.00008721200000","RCS_SIZE":"LARGE","ELEMENT_SET_NO":"999","OBJECT_NAME":"STARLINK-4538","NORAD_CAT_ID":"53430","APOAPSIS":"351.160","FILE":"3578162","INCLINATION":"53.2164"},{"RCS_SIZE":"LARGE","OBJECT_NAME":"STARLINK-4548","ELEMENT_SET_NO":"999","COUNTRY_CODE":"US","BSTAR":"-0.00036643000000","FILE":"3578162","INCLINATION":"53.2156","NORAD_CAT_ID":"53431","APOAPSIS":"351.017","MEAN_MOTION_DOT":"-0.00051757","OBJECT_ID":"2022-097AV","CLASSIFICATION_TYPE":"U","MEAN_ELEMENT_THEORY":"SGP4","MEAN_MOTION":"15.73210194","PERIOD":"91.533","REV_AT_EPOCH":"130","DECAY_DATE":null,"MEAN_MOTION_DDOT":"0.0000000000000","RA_OF_ASC_NODE":"46.5099","OBJECT_TYPE":"PAYLOAD","ARG_OF_PERICENTER":"27.1899","ECCENTRICITY":"0.00019120","TLE_LINE2":"2 53431  53.2156  46.5099 0001912  27.1899 356.3652 15.73210194  1309","SEMIMAJOR_AXIS":"6727.866","MEAN_ANOMALY":"356.3652","REF_FRAME":"TEME","SITE":"AFETR","TIME_SYSTEM":"UTC","EPHEMERIS_TYPE":"0","TLE_LINE1":"1 53431U 22097AV  22262.91667824 -.00051757  00000-0 -36643-3 0  9995","EPOCH":"2022-09-19T22:00:00.999936","PERIAPSIS":"348.445","GP_ID":"213035770","LAUNCH_DATE":"2022-08-10","CENTER_NAME":"EARTH"},{"EPOCH":"2022-09-19T22:00:00.999936","GP_ID":"213034811","LAUNCH_DATE":"2022-08-10","PERIAPSIS":"348.781","CENTER_NAME":"EARTH","EPHEMERIS_TYPE":"0","TLE_LINE1":"1 53432U 22097AW  22262.91667824  .00000273  00000-0  63662-5 0  9994","OBJECT_TYPE":"PAYLOAD","RA_OF_ASC_NODE":"46.4866","ARG_OF_PERICENTER":"33.6581","ECCENTRICITY":"0.00014370","REF_FRAME":"TEME","TLE_LINE2":"2 53432  53.2171  46.4866 0001437  33.6581 353.3487 15.73204498  1303","MEAN_ANOMALY":"353.3487","SEMIMAJOR_AXIS":"6727.882","TIME_SYSTEM":"UTC","SITE":"AFETR","MEAN_MOTION_DDOT":"0.0000000000000","MEAN_ELEMENT_THEORY":"SGP4","CLASSIFICATION_TYPE":"U","PERIOD":"91.533","MEAN_MOTION":"15.73204498","REV_AT_EPOCH":"130","DECAY_DATE":null,"MEAN_MOTION_DOT":"0.00000273","OBJECT_ID":"2022-097AW","INCLINATION":"53.2171","FILE":"3578162","APOAPSIS":"350.714","NORAD_CAT_ID":"53432","RCS_SIZE":"LARGE","ELEMENT_SET_NO":"999","OBJECT_NAME":"STARLINK-4557","COUNTRY_CODE":"US","BSTAR":"0.00000636620000"},{"TLE_LINE1":"1 53433U 22097AX  22262.91667824 -.00009164  00000-0 -61013-4 0  9992","EPHEMERIS_TYPE":"0","GP_ID":"213035387","LAUNCH_DATE":"2022-08-10","PERIAPSIS":"348.596","CENTER_NAME":"EARTH","EPOCH":"2022-09-19T22:00:00.999936","MEAN_MOTION_DDOT":"0.0000000000000","REF_FRAME":"TEME","MEAN_ANOMALY":"355.4172","TLE_LINE2":"2 53433  53.2173  46.5073 0001851  30.4640 355.4172 15.73171547  1300","SEMIMAJOR_AXIS":"6727.976","TIME_SYSTEM":"UTC","SITE":"AFETR","OBJECT_TYPE":"PAYLOAD","RA_OF_ASC_NODE":"46.5073","ARG_OF_PERICENTER":"30.4640","ECCENTRICITY":"0.00018510","OBJECT_ID":"2022-097AX","MEAN_MOTION_DOT":"-0.00009164","REV_AT_EPOCH":"130","DECAY_DATE":null,"CLASSIFICATION_TYPE":"U","MEAN_ELEMENT_THEORY":"SGP4","PERIOD":"91.535","MEAN_MOTION":"15.73171547","COUNTRY_CODE":"US","BSTAR":"-0.00006101300000","OBJECT_NAME":"STARLINK-4549","RCS_SIZE":"LARGE","ELEMENT_SET_NO":"999","APOAPSIS":"351.087","NORAD_CAT_ID":"53433","INCLINATION":"53.2173","FILE":"3578162"},{"ECCENTRICITY":"0.00020090","ARG_OF_PERICENTER":"30.7600","OBJECT_TYPE":"PAYLOAD","RA_OF_ASC_NODE":"46.5030","TIME_SYSTEM":"UTC","SITE":"AFETR","REF_FRAME":"TEME","TLE_LINE2":"2 53434  53.2173  46.5030 0002009  30.7600 357.4993 15.73204075  1305","SEMIMAJOR_AXIS":"6727.884","MEAN_ANOMALY":"357.4993","MEAN_MOTION_DDOT":"0.0000000000000","EPOCH":"2022-09-19T22:00:00.999936","CENTER_NAME":"EARTH","GP_ID":"213035707","LAUNCH_DATE":"2022-08-10","PERIAPSIS":"348.397","EPHEMERIS_TYPE":"0","TLE_LINE1":"1 53434U 22097AY  22262.91667824 -.00013295  00000-0 -90430-4 0  9998","INCLINATION":"53.2173","FILE":"3578162","APOAPSIS":"351.100","NORAD_CAT_ID":"53434","OBJECT_NAME":"STARLINK-4498","RCS_SIZE":"LARGE","ELEMENT_SET_NO":"999","BSTAR":"-0.00009043000000","COUNTRY_CODE":"US","PERIOD":"91.533","MEAN_MOTION":"15.73204075","CLASSIFICATION_TYPE":"U","MEAN_ELEMENT_THEORY":"SGP4","DECAY_DATE":null,"REV_AT_EPOCH":"130","MEAN_MOTION_DOT":"-0.00013295","OBJECT_ID":"2022-097AY"},{"RCS_SIZE":"LARGE","OBJECT_NAME":"STARLINK-4542","ELEMENT_SET_NO":"999","BSTAR":"0.00016637000000","COUNTRY_CODE":"US","INCLINATION":"53.2161","FILE":"3578162","APOAPSIS":"351.080","NORAD_CAT_ID":"53435","MEAN_MOTION_DOT":"0.00022779","OBJECT_ID":"2022-097AZ","PERIOD":"91.534","MEAN_MOTION":"15.73186281","MEAN_ELEMENT_THEORY":"SGP4","CLASSIFICATION_TYPE":"U","DECAY_DATE":null,"REV_AT_EPOCH":"130","MEAN_MOTION_DDOT":"0.0000000000000","ARG_OF_PERICENTER":"32.0839","ECCENTRICITY":"0.00019040","OBJECT_TYPE":"PAYLOAD","RA_OF_ASC_NODE":"46.5055","TIME_SYSTEM":"UTC","SITE":"AFETR","REF_FRAME":"TEME","SEMIMAJOR_AXIS":"6727.934","TLE_LINE2":"2 53435  53.2161  46.5055 0001904  32.0839 354.4300 15.73186281  1309","MEAN_ANOMALY":"354.4300","EPHEMERIS_TYPE":"0","TLE_LINE1":"1 53435U 22097AZ  22262.91667824  .00022779  00000-0  16637-3 0  9990","EPOCH":"2022-09-19T22:00:00.999936","CENTER_NAME":"EARTH","LAUNCH_DATE":"2022-08-10","GP_ID":"213035547","PERIAPSIS":"348.518"},{"OBJECT_ID":"2022-097BA","MEAN_MOTION_DOT":"0.00062401","DECAY_DATE":null,"REV_AT_EPOCH":"130","MEAN_MOTION":"15.73152361","PERIOD":"91.536","CLASSIFICATION_TYPE":"U","MEAN_ELEMENT_THEORY":"SGP4","BSTAR":"0.00044662000000","COUNTRY_CODE":"US","RCS_SIZE":"LARGE","ELEMENT_SET_NO":"999","OBJECT_NAME":"STARLINK-4527","NORAD_CAT_ID":"53436","APOAPSIS":"351.206","FILE":"3578162","INCLINATION":"53.2173","TLE_LINE1":"1 53436U 22097BA  22262.91667824  .00062401  00000-0  44662-3 0  9996","EPHEMERIS_TYPE":"0","CENTER_NAME":"EARTH","PERIAPSIS":"348.586","GP_ID":"213035227","LAUNCH_DATE":"2022-08-10","EPOCH":"2022-09-19T22:00:00.999936","MEAN_MOTION_DDOT":"0.0000000000000","SITE":"AFETR","TIME_SYSTEM":"UTC","TLE_LINE2":"2 53436  53.2173  46.5015 0001947  26.4414   2.4703 15.73152361  1301","MEAN_ANOMALY":"2.4703","SEMIMAJOR_AXIS":"6728.031","REF_FRAME":"TEME","ECCENTRICITY":"0.00019470","ARG_OF_PERICENTER":"26.4414","RA_OF_ASC_NODE":"46.5015","OBJECT_TYPE":"PAYLOAD"},{"MEAN_MOTION_DDOT":"0.0000000000000","OBJECT_TYPE":"PAYLOAD","RA_OF_ASC_NODE":"46.4982","ARG_OF_PERICENTER":"33.6324","ECCENTRICITY":"0.00019250","TLE_LINE2":"2 53438  53.2157  46.4982 0001925  33.6324 355.8484 15.73179045  1302","SEMIMAJOR_AXIS":"6727.955","MEAN_ANOMALY":"355.8484","REF_FRAME":"TEME","SITE":"AFETR","TIME_SYSTEM":"UTC","EPHEMERIS_TYPE":"0","TLE_LINE1":"1 53438U 22097BC  22262.91667824 -.00019271  00000-0 -13331-3 0  9996","EPOCH":"2022-09-19T22:00:00.999936","PERIAPSIS":"348.525","LAUNCH_DATE":"2022-08-10","GP_ID":"213034971","CENTER_NAME":"EARTH","ELEMENT_SET_NO":"999","RCS_SIZE":"LARGE","OBJECT_NAME":"STARLINK-4526","COUNTRY_CODE":"US","BSTAR":"-0.00013331000000","FILE":"3578162","INCLINATION":"53.2157","NORAD_CAT_ID":"53438","APOAPSIS":"351.115","MEAN_MOTION_DOT":"-0.00019271","OBJECT_ID":"2022-097BC","CLASSIFICATION_TYPE":"U","MEAN_ELEMENT_THEORY":"SGP4","MEAN_MOTION":"15.73179045","PERIOD":"91.534","REV_AT_EPOCH":"130","DECAY_DATE":null},{"REV_AT_EPOCH":"130","DECAY_DATE":null,"MEAN_ELEMENT_THEORY":"SGP4","CLASSIFICATION_TYPE":"U","PERIOD":"91.534","MEAN_MOTION":"15.73178000","OBJECT_ID":"2022-097BD","MEAN_MOTION_DOT":"0.00027163","APOAPSIS":"351.158","NORAD_CAT_ID":"53439","INCLINATION":"53.2159","FILE":"3578162","COUNTRY_CODE":"US","BSTAR":"0.00019751000000","OBJECT_NAME":"STARLINK-4519","RCS_SIZE":"LARGE","ELEMENT_SET_NO":"999","LAUNCH_DATE":"2022-08-10","GP_ID":"213035931","PERIAPSIS":"348.488","CENTER_NAME":"EARTH","EPOCH":"2022-09-19T22:00:00.999936","TLE_LINE1":"1 53439U 22097BD  22262.91667824  .00027163  00000-0  19751-3 0  9996","EPHEMERIS_TYPE":"0","REF_FRAME":"TEME","MEAN_ANOMALY":"355.2883","TLE_LINE2":"2 53439  53.2159  46.4972 0001984  34.8047 355.2883 15.73178000  1301","SEMIMAJOR_AXIS":"6727.958","TIME_SYSTEM":"UTC","SITE":"AFETR","OBJECT_TYPE":"PAYLOAD","RA_OF_ASC_NODE":"46.4972","ARG_OF_PERICENTER":"34.8047","ECCENTRICITY":"0.00019840","MEAN_MOTION_DDOT":"0.0000000000000"},{"TLE_LINE1":"1 53465U 22099A   22262.91667824 -.01268731  00000-0 -68092-1 0  9998","EPHEMERIS_TYPE":"0","CENTER_NAME":"EARTH","GP_ID":"213035230","LAUNCH_DATE":"2022-08-12","PERIAPSIS":"510.126","EPOCH":"2022-09-19T22:00:00.999936","MEAN_MOTION_DDOT":"0.0000000000000","TIME_SYSTEM":"UTC","SITE":"AFWTR","REF_FRAME":"TEME","TLE_LINE2":"2 53465  97.6552  22.7848 0002080  50.8820   9.9684 15.18108512  1305","SEMIMAJOR_AXIS":"6889.694","MEAN_ANOMALY":"9.9684","ARG_OF_PERICENTER":"50.8820","ECCENTRICITY":"0.00020800","RA_OF_ASC_NODE":"22.7848","OBJECT_TYPE":"PAYLOAD","OBJECT_ID":"2022-099A","MEAN_MOTION_DOT":"-0.01268731","DECAY_DATE":null,"REV_AT_EPOCH":"130","PERIOD":"94.855","MEAN_MOTION":"15.18108512","MEAN_ELEMENT_THEORY":"SGP4","CLASSIFICATION_TYPE":"U","BSTAR":"-0.06809200000000","COUNTRY_CODE":"US","OBJECT_NAME":"STARLINK-4415","RCS_SIZE":"LARGE","ELEMENT_SET_NO":"999","APOAPSIS":"512.993","NORAD_CAT_ID":"53465","INCLINATION":"97.6552","FILE":"3578162"}];
